     2.100          NAVIGATION                              RINEX VERSION / TYPE
fic2rin                                 01/17/2014 01:58:48 PGM / RUN BY / DATE
                                                            END OF HEADER
27 14  1 16 16  0  0.0 -.147442333400D-04 -.193267624127D-11  .000000000000D+00
     .330000000000D+02 -.131093750000D+03  .433839499728D-08  .648373490924D+00
    -.682659447193D-05  .636321143247D-03  .833719968796D-05  .515367933655D+04
     .403200000000D+06  .633299350739D-07 -.369976833283D+00 -.130385160446D-07
     .962490947840D+00  .220656250000D+03  .178457330058D+00 -.802497712965D-08
    -.187507810453D-09  .100000000000D+01  .177500000000D+04  .000000000000D+00
     .240000000000D+01  .000000000000D+00  .186264514923D-08  .330000000000D+02
     .396006000000D+06  .400000000000D+01
28 14  1 16 16  0  0.0  .325093045831D-03  .295585778076D-11  .000000000000D+00
     .106000000000D+03 -.668750000000D+01  .425696303388D-08  .148393355725D+01
    -.717118382454D-06  .192894483916D-01  .141561031342D-05  .515365671921D+04
     .403200000000D+06 -.191852450371D-06 -.135331111022D+01 -.400468707085D-06
     .985258254132D+00  .365968750000D+03 -.173426842960D+01 -.829141679936D-08
     .421446126351D-10  .100000000000D+01  .177500000000D+04  .000000000000D+00
     .240000000000D+01  .000000000000D+00 -.107102096081D-07  .106000000000D+03
     .396006000000D+06  .400000000000D+01
29 14  1 16 16  0  0.0  .503754243255D-03  .284217094304D-11  .000000000000D+00
     .360000000000D+02 -.109562500000D+03  .414481550535D-08 -.271242734710D+01
    -.569038093090D-05  .158479053061D-02  .861659646034D-05  .515377363777D+04
     .403200000000D+06 -.558793544769D-08 -.316330240470D+00  .521540641785D-07
     .968544453113D+00  .213593750000D+03 -.100592148924D+01 -.784461247388D-08
    -.100718481043D-09  .100000000000D+01  .177500000000D+04  .000000000000D+00
     .240000000000D+01  .000000000000D+00 -.931322574615D-08  .360000000000D+02
     .396006000000D+06  .400000000000D+01
30 14  1 16 16  0  0.0 -.155377201736D-03  .795807864051D-12  .000000000000D+00
     .830000000000D+02  .125000000000D+00  .566880755716D-08  .162245876821D+01
    -.428408384323D-07  .649266736582D-02  .769272446632D-06  .515374619293D+04
     .403200000000D+06 -.143423676491D-06 -.140099812442D+01 -.931322574615D-08
     .979672841683D+00  .374718750000D+03  .844127199869D+00 -.839249243814D-08
     .264296723305D-10  .100000000000D+01  .177500000000D+04  .000000000000D+00
     .340000000000D+01  .630000000000D+02 -.190921127796D-07  .830000000000D+02
     .396006000000D+06  .400000000000D+01
31 14  1 16 16  0  0.0  .332405790687D-03  .341060513165D-12  .000000000000D+00
     .960000000000D+02  .136406250000D+03  .383658838073D-08 -.216190016053D+01
     .707805156708D-05  .824182981160D-02  .843964517117D-05  .515376273727D+04
     .403200000000D+06 -.931322574615D-07 -.243388043168D+01  .113621354103D-06
     .979475870004D+00  .231218750000D+03 -.681894854309D+00 -.778210987040D-08
     .233938315898D-09  .100000000000D+01  .177500000000D+04  .000000000000D+00
     .240000000000D+01  .000000000000D+00 -.130385160446D-07  .960000000000D+02
     .396006000000D+06  .400000000000D+01
32 14  1 16 16  0  0.0 -.500861089677D-03  .568434188608D-11  .000000000000D+00
     .920000000000D+02 -.878125000000D+01  .540629662253D-08 -.159556393072D+01
    -.441446900368D-06  .115242993925D-01  .455416738987D-05  .515350980759D+04
     .403200000000D+06  .186264514923D-08  .181258773854D+01 -.223517417908D-06
     .947679367495D+00  .284250000000D+03 -.198288969383D+00 -.851321175230D-08
     .417874549009D-10  .100000000000D+01  .177500000000D+04  .000000000000D+00
     .240000000000D+01  .000000000000D+00 -.325962901115D-08  .920000000000D+02
     .396006000000D+06  .400000000000D+01
 8 14  1 16 15 59 44.0  .113495625556D-04  .341060513165D-12  .000000000000D+00
     .170000000000D+02  .121656250000D+03  .345800118249D-08 -.274209581436D+01
     .613741576672D-05  .134455056395D-01  .793859362602D-05  .515365296173D+04
     .403184000000D+06 -.121071934700D-06 -.234298023499D+01 -.178813934326D-06
     .997529654246D+00  .246031250000D+03 -.279477312593D+01 -.745102465080D-08
     .314298806093D-09  .100000000000D+01  .177500000000D+04  .000000000000D+00
     .240000000000D+01  .000000000000D+00 -.465661287308D-08  .170000000000D+02
     .396156000000D+06  .400000000000D+01
 7 14  1 16 15 59 44.0  .303399749100D-03  .420641299570D-11  .000000000000D+00
     .800000000000D+01  .123500000000D+03  .390194824609D-08 -.216480845630D+01
     .629015266895D-05  .699866679497D-02  .869482755661D-05  .515365877914D+04
     .403184000000D+06 -.242143869400D-07 -.243943968130D+01 -.819563865662D-07
     .974520925508D+00  .219781250000D+03 -.283242719924D+01 -.771960726691D-08
     .289654922433D-09  .100000000000D+01  .177500000000D+04  .000000000000D+00
     .240000000000D+01  .000000000000D+00 -.107102096081D-07  .800000000000D+01
     .402486000000D+06  .400000000000D+01
22 14  1 16 15 59 28.0  .207222532481D-03  .238742359215D-11  .000000000000D+00
     .650000000000D+02  .750000000000D+00  .597274878896D-08  .169962829522D+01
    -.279396772385D-07  .673139595892D-02  .427477061749D-05  .515362803650D+04
     .403168000000D+06 -.167638063431D-06  .172338310633D+01 -.119209289551D-06
     .923508040205D+00  .279937500000D+03 -.205814357497D+01 -.874786438366D-08
     .535736601294D-11  .100000000000D+01  .177500000000D+04  .000000000000D+00
     .240000000000D+01  .000000000000D+00 -.172294676304D-07  .650000000000D+02
     .402816000000D+06  .400000000000D+01
22 14  1 16 17 59 28.0  .207239761949D-03  .238742359215D-11  .000000000000D+00
     .670000000000D+02  .175000000000D+01  .588774524822D-08  .274980931180D+01
     .447034835815D-07  .673118524719D-02  .405497848988D-05  .515362865639D+04
     .410368000000D+06  .223517417908D-07  .172332093670D+01 -.113621354103D-06
     .923508818478D+00  .282062500000D+03 -.205810590044D+01 -.857857161766D-08
     .321441960776D-11  .100000000000D+01  .177500000000D+04  .000000000000D+00
     .240000000000D+01  .000000000000D+00 -.172294676304D-07  .670000000000D+02
     .403206000000D+06  .400000000000D+01
 7 14  1 16 17 59 44.0  .303429551423D-03  .420641299570D-11  .000000000000D+00
     .200000000000D+02  .124937500000D+03  .393552107311D-08 -.111460547108D+01
     .636279582977D-05  .699852139223D-02  .879354774952D-05  .515365904045D+04
     .410384000000D+06  .147148966789D-06 -.243949470457D+01 -.152736902237D-06
     .974522523015D+00  .218125000000D+03 -.283244516680D+01 -.778139555493D-08
     .161792453591D-09  .100000000000D+01  .177500000000D+04  .000000000000D+00
     .240000000000D+01  .000000000000D+00 -.107102096081D-07  .200000000000D+02
     .403206000000D+06  .400000000000D+01
31 14  1 16 17 59 44.0  .332409515977D-03  .341060513165D-12  .000000000000D+00
     .200000000000D+01  .112531250000D+03  .395516474849D-08 -.111451756434D+01
     .580027699471D-05  .824190035928D-02  .824965536594D-05  .515375641441D+04
     .410384000000D+06 -.117346644402D-06 -.243393688422D+01 -.558793544769D-08
     .979477477751D+00  .235125000000D+03 -.681487201946D+00 -.784282668521D-08
     .251796202608D-09  .100000000000D+01  .177500000000D+04  .000000000000D+00
     .240000000000D+01  .000000000000D+00 -.130385160446D-07  .200000000000D+01
     .403206000000D+06  .400000000000D+01
 2 14  1 16 18  0  0.0  .473132357001D-03  .216004991671D-11  .000000000000D+00
     .100000000000D+03  .131250000000D+01  .507592571839D-08  .203992769941D+00
     .143423676491D-06  .129867410287D-01  .100415199995D-04  .515379512215D+04
     .410400000000D+06  .465661287308D-07  .656637586837D+00  .188127160072D-06
     .939320925070D+00  .178031250000D+03 -.251197948221D+01 -.830427447779D-08
     .504663878419D-09  .100000000000D+01  .177500000000D+04  .000000000000D+00
     .340000000000D+01  .000000000000D+00 -.204890966415D-07  .100000000000D+03
     .403206000000D+06  .400000000000D+01
 3 14  1 16 18  0  0.0  .313284341246D-03  .511590769747D-11  .000000000000D+00
     .106000000000D+03 -.120281250000D+03  .503985278724D-08  .398047093265D+00
    -.631622970104D-05  .167209592182D-01  .675767660141D-05  .515376553535D+04
     .410400000000D+06 -.244006514549D-06 -.515767303573D+00 -.130385160446D-07
     .937187712556D+00  .240375000000D+03  .135894538414D+01 -.868643325338D-08
    -.318584698903D-09  .100000000000D+01  .177500000000D+04  .000000000000D+00
     .240000000000D+01  .000000000000D+00 -.465661287308D-08  .106000000000D+03
     .403206000000D+06  .400000000000D+01
 4 14  1 16 18  0  0.0  .487687066197D-05  .113686837722D-12  .000000000000D+00
     .460000000000D+02  .428125000000D+01  .492127641949D-08 -.271148624751D+01
    -.316649675369D-07  .106404476101D-01  .103060156107D-04  .515367977905D+04
     .410400000000D+06  .217929482460D-06  .672787839628D+00 -.106170773506D-06
     .938329040279D+00  .165406250000D+03  .107256476769D+01 -.796211736843D-08
     .641098132882D-09  .100000000000D+01  .177500000000D+04  .000000000000D+00
     .240000000000D+01  .000000000000D+00 -.651925802231D-08  .460000000000D+02
     .403206000000D+06  .400000000000D+01
 5 14  1 16 18  0  0.0 -.392137095332D-03  .125055521494D-11  .000000000000D+00
     .670000000000D+02  .503125000000D+01  .541915430096D-08  .243655218676D+01
     .270083546638D-06  .353164528497D-02  .452809035778D-05  .515376875496D+04
     .410400000000D+06 -.102445483208D-06  .172364985774D+01 -.558793544769D-08
     .947166569358D+00  .286625000000D+03  .370206556772D+00 -.837034865862D-08
     .600024993449D-10  .100000000000D+01  .177500000000D+04  .000000000000D+00
     .240000000000D+01  .000000000000D+00 -.102445483208D-07  .670000000000D+02
     .403206000000D+06  .400000000000D+01
